<?xml version="1.0" encoding="UTF-8"?>
<kml xmlns="http://www.opengis.net/kml/2.2">
<Document>
<Placemark>
  <ExtendedData>
    <Data name='system:index'>
      <value>0</value>
    </Data>
  </ExtendedData>
  <Polygon>
    <outerBoundaryIs>
      <LinearRing>
        <coordinates>-145.6697006139543,63.3816815871146 -145.61219405267394,63.35890660506129 -145.58833312127666,63.35290208332627 -145.56756209466198,63.34674229653499 -145.538379660581,63.340119053895755 -145.5079955968569,63.33334020343909 -145.4798431310428,63.32856323602565 -145.45066069696185,63.324016675837555 -145.41512679193036,63.319161081384614 -145.38663100335467,63.316608185193886 -145.36036681268,63.3162227513072 -145.38148116204732,63.32393044889803 -145.40448378655407,63.330018071192846 -145.42096327874296,63.33171312922496 -145.45460890862603,63.338646417928494 -145.4934043798164,63.3464251193116 -145.54026793572945,63.358204690145556 -145.55983733270094,63.36574723937945 -145.57082366082088,63.36251496067034 -145.59331130120768,63.36820968389879 -145.60000609491084,63.37390327862765 -145.6072158727429,63.379220297262776 -145.6697006139543,63.3816815871146 </coordinates>
      </LinearRing>
    </outerBoundaryIs>
  </Polygon>
</Placemark>
</Document>
</kml>